[{"OBJECT_NAME":"QIANFAN-86","OBJECT_ID":"2025-046P","EPOCH":"2026-03-05T06:50:35.422944","MEAN_MOTION":13.51001508,"ECCENTRICITY":0.00092706,"INCLINATION":88.9763,"RA_OF_ASC_NODE":311.2602,"ARG_OF_PERICENTER":253.415,"MEAN_ANOMALY":106.5983,"EPHEMERIS_TYPE":0,"CLASSIFICATION_TYPE":"U","NORAD_CAT_ID":63172,"ELEMENT_SET_NO":999,"REV_AT_EPOCH":5869,"BSTAR":0.00030439122,"MEAN_MOTION_DOT":2.09e-6,"MEAN_MOTION_DDOT":0},{"OBJECT_NAME":"QIANFAN-87","OBJECT_ID":"2025-046Q","EPOCH":"2026-03-05T06:09:14.111712","MEAN_MOTION":13.51009844,"ECCENTRICITY":0.00099591,"INCLINATION":88.9759,"RA_OF_ASC_NODE":311.3715,"ARG_OF_PERICENTER":247.7319,"MEAN_ANOMALY":112.2777,"EPHEMERIS_TYPE":0,"CLASSIFICATION_TYPE":"U","NORAD_CAT_ID":63173,"ELEMENT_SET_NO":999,"REV_AT_EPOCH":5862,"BSTAR":0.00031929153,"MEAN_MOTION_DOT":2.18e-6,"MEAN_MOTION_DDOT":0},{"OBJECT_NAME":"QIANFAN-88","OBJECT_ID":"2025-046R","EPOCH":"2026-03-05T06:32:44.204640","MEAN_MOTION":13.5099816,"ECCENTRICITY":0.00103453,"INCLINATION":88.9762,"RA_OF_ASC_NODE":311.3265,"ARG_OF_PERICENTER":257.4232,"MEAN_ANOMALY":102.5762,"EPHEMERIS_TYPE":0,"CLASSIFICATION_TYPE":"U","NORAD_CAT_ID":63174,"ELEMENT_SET_NO":999,"REV_AT_EPOCH":5865,"BSTAR":0.00029697264,"MEAN_MOTION_DOT":2.04e-6,"MEAN_MOTION_DDOT":0},{"OBJECT_NAME":"QIANFAN-89","OBJECT_ID":"2025-046S","EPOCH":"2026-03-05T05:39:38.539008","MEAN_MOTION":13.51008696,"ECCENTRICITY":0.00148303,"INCLINATION":88.9762,"RA_OF_ASC_NODE":311.5194,"ARG_OF_PERICENTER":246.6647,"MEAN_ANOMALY":113.2944,"EPHEMERIS_TYPE":0,"CLASSIFICATION_TYPE":"U","NORAD_CAT_ID":63175,"ELEMENT_SET_NO":999,"REV_AT_EPOCH":5854,"BSTAR":0.00031747563,"MEAN_MOTION_DOT":2.17e-6,"MEAN_MOTION_DDOT":0},{"OBJECT_NAME":"QIANFAN-90","OBJECT_ID":"2025-046T","EPOCH":"2026-03-05T06:21:09.910656","MEAN_MOTION":13.51008575,"ECCENTRICITY":0.00117906,"INCLINATION":88.9762,"RA_OF_ASC_NODE":311.4889,"ARG_OF_PERICENTER":244.5347,"MEAN_ANOMALY":115.4585,"EPHEMERIS_TYPE":0,"CLASSIFICATION_TYPE":"U","NORAD_CAT_ID":63176,"ELEMENT_SET_NO":999,"REV_AT_EPOCH":5856,"BSTAR":0.00033319032,"MEAN_MOTION_DOT":2.27e-6,"MEAN_MOTION_DDOT":0},{"OBJECT_NAME":"QIANFAN-91","OBJECT_ID":"2025-233A","EPOCH":"2026-03-05T07:08:01.212864","MEAN_MOTION":13.51004481,"ECCENTRICITY":0.00019338,"INCLINATION":88.9929,"RA_OF_ASC_NODE":53.6938,"ARG_OF_PERICENTER":92.4333,"MEAN_ANOMALY":267.704,"EPHEMERIS_TYPE":0,"CLASSIFICATION_TYPE":"U","NORAD_CAT_ID":66033,"ELEMENT_SET_NO":999,"REV_AT_EPOCH":1915,"BSTAR":3.2293788e-5,"MEAN_MOTION_DOT":3.3e-7,"MEAN_MOTION_DDOT":0},{"OBJECT_NAME":"QIANFAN-92","OBJECT_ID":"2025-233B","EPOCH":"2026-03-05T05:33:07.794144","MEAN_MOTION":13.51005907,"ECCENTRICITY":0.0001934,"INCLINATION":88.9913,"RA_OF_ASC_NODE":53.6892,"ARG_OF_PERICENTER":85.8832,"MEAN_ANOMALY":274.254,"EPHEMERIS_TYPE":0,"CLASSIFICATION_TYPE":"U","NORAD_CAT_ID":66034,"ELEMENT_SET_NO":999,"REV_AT_EPOCH":1914,"BSTAR":2.4429369e-5,"MEAN_MOTION_DOT":2.8e-7,"MEAN_MOTION_DDOT":0},{"OBJECT_NAME":"QIANFAN-93","OBJECT_ID":"2025-233C","EPOCH":"2026-03-05T07:31:38.146080","MEAN_MOTION":13.51004886,"ECCENTRICITY":0.0001917,"INCLINATION":88.994,"RA_OF_ASC_NODE":53.7046,"ARG_OF_PERICENTER":90.7343,"MEAN_ANOMALY":269.4027,"EPHEMERIS_TYPE":0,"CLASSIFICATION_TYPE":"U","NORAD_CAT_ID":66035,"ELEMENT_SET_NO":999,"REV_AT_EPOCH":1915,"BSTAR":2.6365034e-5,"MEAN_MOTION_DOT":2.9e-7,"MEAN_MOTION_DDOT":0},{"OBJECT_NAME":"QIANFAN-94","OBJECT_ID":"2025-233D","EPOCH":"2026-03-05T05:26:58.580160","MEAN_MOTION":13.50991879,"ECCENTRICITY":0.0002047,"INCLINATION":88.9937,"RA_OF_ASC_NODE":53.6201,"ARG_OF_PERICENTER":88.0258,"MEAN_ANOMALY":272.1127,"EPHEMERIS_TYPE":0,"CLASSIFICATION_TYPE":"U","NORAD_CAT_ID":66036,"ELEMENT_SET_NO":999,"REV_AT_EPOCH":1919,"BSTAR":3.2311119e-5,"MEAN_MOTION_DOT":3.3e-7,"MEAN_MOTION_DDOT":0},{"OBJECT_NAME":"QIANFAN-95","OBJECT_ID":"2025-233E","EPOCH":"2026-03-05T05:38:52.397088","MEAN_MOTION":13.51015349,"ECCENTRICITY":0.000205,"INCLINATION":88.9935,"RA_OF_ASC_NODE":53.1656,"ARG_OF_PERICENTER":93.6086,"MEAN_ANOMALY":266.53,"EPHEMERIS_TYPE":0,"CLASSIFICATION_TYPE":"U","NORAD_CAT_ID":66037,"ELEMENT_SET_NO":999,"REV_AT_EPOCH":1944,"BSTAR":7.6324225e-5,"MEAN_MOTION_DOT":6.1e-7,"MEAN_MOTION_DDOT":0},{"OBJECT_NAME":"QIANFAN-96","OBJECT_ID":"2025-233F","EPOCH":"2026-03-05T06:14:40.511904","MEAN_MOTION":13.51004703,"ECCENTRICITY":0.00019365,"INCLINATION":88.9932,"RA_OF_ASC_NODE":53.7091,"ARG_OF_PERICENTER":94.6803,"MEAN_ANOMALY":265.4569,"EPHEMERIS_TYPE":0,"CLASSIFICATION_TYPE":"U","NORAD_CAT_ID":66038,"ELEMENT_SET_NO":999,"REV_AT_EPOCH":1914,"BSTAR":4.4551658e-5,"MEAN_MOTION_DOT":4.1e-7,"MEAN_MOTION_DDOT":0},{"OBJECT_NAME":"QIANFAN-97","OBJECT_ID":"2025-233G","EPOCH":"2026-03-05T05:50:57.283584","MEAN_MOTION":13.51004086,"ECCENTRICITY":0.00019397,"INCLINATION":88.9935,"RA_OF_ASC_NODE":53.6914,"ARG_OF_PERICENTER":92.2306,"MEAN_ANOMALY":267.9067,"EPHEMERIS_TYPE":0,"CLASSIFICATION_TYPE":"U","NORAD_CAT_ID":66039,"ELEMENT_SET_NO":999,"REV_AT_EPOCH":1915,"BSTAR":3.0296115e-5,"MEAN_MOTION_DOT":3.2e-7,"MEAN_MOTION_DDOT":0},{"OBJECT_NAME":"QIANFAN-98","OBJECT_ID":"2025-233H","EPOCH":"2026-03-05T07:49:22.816128","MEAN_MOTION":13.51004583,"ECCENTRICITY":0.00024502,"INCLINATION":88.9925,"RA_OF_ASC_NODE":53.4253,"ARG_OF_PERICENTER":85.4325,"MEAN_ANOMALY":274.7106,"EPHEMERIS_TYPE":0,"CLASSIFICATION_TYPE":"U","NORAD_CAT_ID":66040,"ELEMENT_SET_NO":999,"REV_AT_EPOCH":1930,"BSTAR":5.6939316e-5,"MEAN_MOTION_DOT":4.9e-7,"MEAN_MOTION_DDOT":0},{"OBJECT_NAME":"QIANFAN-99","OBJECT_ID":"2025-233J","EPOCH":"2026-03-05T06:08:43.373184","MEAN_MOTION":13.5100484,"ECCENTRICITY":0.00023469,"INCLINATION":88.9936,"RA_OF_ASC_NODE":53.6936,"ARG_OF_PERICENTER":88.9172,"MEAN_ANOMALY":271.2248,"EPHEMERIS_TYPE":0,"CLASSIFICATION_TYPE":"U","NORAD_CAT_ID":66041,"ELEMENT_SET_NO":999,"REV_AT_EPOCH":1915,"BSTAR":5.0086892e-5,"MEAN_MOTION_DOT":4.4e-7,"MEAN_MOTION_DDOT":0},{"OBJECT_NAME":"QIANFAN-100","OBJECT_ID":"2025-233K","EPOCH":"2026-03-05T05:56:49.929504","MEAN_MOTION":13.51005683,"ECCENTRICITY":0.00019126,"INCLINATION":88.9947,"RA_OF_ASC_NODE":53.6097,"ARG_OF_PERICENTER":91.4162,"MEAN_ANOMALY":268.7208,"EPHEMERIS_TYPE":0,"CLASSIFICATION_TYPE":"U","NORAD_CAT_ID":66042,"ELEMENT_SET_NO":999,"REV_AT_EPOCH":1920,"BSTAR":7.7471219e-5,"MEAN_MOTION_DOT":6.2e-7,"MEAN_MOTION_DDOT":0},{"OBJECT_NAME":"QIANFAN-101","OBJECT_ID":"2025-233L","EPOCH":"2026-03-05T05:12:31.583808","MEAN_MOTION":14.26734,"ECCENTRICITY":0.00168438,"INCLINATION":88.9936,"RA_OF_ASC_NODE":52.5004,"ARG_OF_PERICENTER":120.1546,"MEAN_ANOMALY":240.132,"EPHEMERIS_TYPE":0,"CLASSIFICATION_TYPE":"U","NORAD_CAT_ID":66043,"ELEMENT_SET_NO":999,"REV_AT_EPOCH":1980,"BSTAR":0.00029286377,"MEAN_MOTION_DOT":7.24e-6,"MEAN_MOTION_DDOT":0},{"OBJECT_NAME":"QIANFAN-102","OBJECT_ID":"2025-233M","EPOCH":"2026-03-05T06:26:15.893664","MEAN_MOTION":13.50992436,"ECCENTRICITY":0.00020941,"INCLINATION":88.9933,"RA_OF_ASC_NODE":53.6043,"ARG_OF_PERICENTER":88.5977,"MEAN_ANOMALY":271.5414,"EPHEMERIS_TYPE":0,"CLASSIFICATION_TYPE":"U","NORAD_CAT_ID":66044,"ELEMENT_SET_NO":999,"REV_AT_EPOCH":1920,"BSTAR":2.4893623e-5,"MEAN_MOTION_DOT":2.8e-7,"MEAN_MOTION_DDOT":0}]
