QIANFAN-86              
1 63172U 25046P   26064.28513221  .00000209  00000+0  30439-3 0  9990
2 63172  88.9763 311.2602 0009270 253.4150 106.5983 13.51001508 58699
QIANFAN-87              
1 63173U 25046Q   26064.25641333  .00000218  00000+0  31929-3 0  9999
2 63173  88.9759 311.3715 0009959 247.7319 112.2777 13.51009844 58627
QIANFAN-88              
1 63174U 25046R   26064.27273385  .00000204  00000+0  29697-3 0  9994
2 63174  88.9762 311.3265 0010345 257.4232 102.5762 13.50998160 58651
QIANFAN-89              
1 63175U 25046S   26064.23586272  .00000217  00000+0  31748-3 0  9997
2 63175  88.9762 311.5194 0014830 246.6647 113.2944 13.51008696 58544
QIANFAN-90              
1 63176U 25046T   26064.26469804  .00000227  00000+0  33319-3 0  9999
2 63176  88.9762 311.4889 0011790 244.5347 115.4585 13.51008575 58564
QIANFAN-91              
1 66033U 25233A   26064.29723626  .00000033  00000+0  32294-4 0  9997
2 66033  88.9929  53.6938 0001933  92.4333 267.7040 13.51004481 19158
QIANFAN-92              
1 66034U 25233B   26064.23134021  .00000028  00000+0  24429-4 0  9992
2 66034  88.9913  53.6892 0001934  85.8832 274.2540 13.51005907 19143
QIANFAN-93              
1 66035U 25233C   26064.31363595  .00000029  00000+0  26365-4 0  9994
2 66035  88.9940  53.7046 0001917  90.7343 269.4027 13.51004886 19151
QIANFAN-94              
1 66036U 25233D   26064.22706690  .00000033  00000+0  32311-4 0  9995
2 66036  88.9937  53.6201 0002047  88.0258 272.1127 13.50991879 19192
QIANFAN-95              
1 66037U 25233E   26064.23532867  .00000061  00000+0  76324-4 0  9993
2 66037  88.9935  53.1656 0002050  93.6086 266.5300 13.51015349 19443
QIANFAN-96              
1 66038U 25233F   26064.26019111  .00000041  00000+0  44552-4 0  9995
2 66038  88.9932  53.7091 0001936  94.6803 265.4569 13.51004703 19144
QIANFAN-97              
1 66039U 25233G   26064.24371856  .00000032  00000+0  30296-4 0  9991
2 66039  88.9935  53.6914 0001939  92.2306 267.9067 13.51004086 19151
QIANFAN-98              
1 66040U 25233H   26064.32595852  .00000049  00000+0  56939-4 0  9996
2 66040  88.9925  53.4253 0002450  85.4325 274.7106 13.51004583 19309
QIANFAN-99              
1 66041U 25233J   26064.25605756  .00000044  00000+0  50087-4 0  9997
2 66041  88.9936  53.6936 0002346  88.9172 271.2248 13.51004840 19152
QIANFAN-100             
1 66042U 25233K   26064.24780011  .00000062  00000+0  77471-4 0  9991
2 66042  88.9947  53.6097 0001912  91.4162 268.7208 13.51005683 19208
QIANFAN-101             
1 66043U 25233L   26064.21703222  .00000724  00000+0  29286-3 0  9993
2 66043  88.9936  52.5004 0016843 120.1546 240.1320 14.26734000 19808
QIANFAN-102             
1 66044U 25233M   26064.26823951  .00000028  00000+0  24894-4 0  9999
2 66044  88.9933  53.6043 0002094  88.5977 271.5414 13.50992436 19200
